NORAD_CAT_ID,OBJECT_NAME,OBJECT_TYPE,EPOCH,MEAN_MOTION,ECCENTRICITY,INCLINATION,RA_OF_ASC_NODE,ARG_OF_PERICENTER,MEAN_ANOMALY,BSTAR,MEAN_MOTION_DOT,MEAN_MOTION_DDOT,TLE_LINE0,TLE_LINE1,TLE_LINE2,SEMIMAJOR_AXIS,PERIOD,APOGEE,PERIGEE,DECAYED
55920.0,STARLINK-5862,PAYLOAD,2023-09-25 13:25:24,14.98332427,0.0002527,70.0026,24.117,255.8254,104.2625,-4.4348e-05,-6.22e-06,0.0,0 STARLINK-5862,1 55920U 23037G   23268.55930825 -.00000622  00000-0 -44348-4 0  9993,2 55920  70.0026  24.1170 0002527 255.8254 104.2625 14.98332427 29745,6950.185,96.107,573.807,570.294,0.0
55920.0,STARLINK-5862,PAYLOAD,2023-09-25 16:37:39,14.98347964,0.0002465,70.0027,23.78,253.8498,106.239,-0.00017679,-2.203e-05,0.0,0 STARLINK-5862,1 55920U 23037G   23268.69282106 -.00002203  00000-0 -17679-3 0  9993,2 55920  70.0027  23.7800 0002465 253.8498 106.2390 14.98347964 30105,6950.137,96.106,573.716,570.289,0.0
55920.0,STARLINK-5862,PAYLOAD,2023-09-26 10:15:09,14.98324267,0.000275,70.0044,21.9328,226.2693,133.8239,-2.4279e-05,-3.83e-06,0.0,0 STARLINK-5862,1 55920U 23037G   23269.42719166 -.00000383  00000-0 -24279-4 0  9998,2 55920  70.0044  21.9328 0002750 226.2693 133.8239 14.98324267 30218,6950.211,96.107,573.987,570.164,0.0
55920.0,STARLINK-5862,PAYLOAD,2023-09-26 11:51:17,14.98324118,0.0002706,70.0043,21.7642,228.6985,131.3942,-2.9225e-05,-4.42e-06,0.0,0 STARLINK-5862,1 55920U 23037G   23269.49395248 -.00000442  00000-0 -29225-4 0  9998,2 55920  70.0043  21.7642 0002706 228.6985 131.3942 14.98324118 29885,6950.211,96.107,573.957,570.195,0.0
55920.0,STARLINK-5862,PAYLOAD,2023-09-26 18:15:49,14.98324109,0.0002747,70.003,21.0869,246.7628,113.3242,-2.3278e-05,-3.71e-06,0.0,0 STARLINK-5862,1 55920U 23037G   23269.76099298 -.00000371  00000-0 -23278-4 0  9997,2 55920  70.0030  21.0869 0002747 246.7628 113.3242 14.98324109 29923,6950.211,96.107,573.985,570.167,0.0
55920.0,STARLINK-5862,PAYLOAD,2023-09-27 13:29:26,14.98329765,0.0002792,70.0017,19.0647,255.3689,104.716,1.3719e-06,-7.7e-07,0.0,0 STARLINK-5862,1 55920U 23037G   23270.56210944 -.00000077  00000-0  13719-5 0  9992,2 55920  70.0017  19.0647 0002792 255.3689 104.7160 14.98329765 30043,6950.194,96.107,573.999,570.118,0.0
55920.0,STARLINK-5862,PAYLOAD,2023-09-27 16:41:42,14.98332232,0.0002822,70.0018,18.7284,260.9932,99.0907,2.3633e-05,1.89e-06,0.0,0 STARLINK-5862,1 55920U 23037G   23270.69562751  .00000189  00000-0  23633-4 0  9990,2 55920  70.0018  18.7284 0002822 260.9932  99.0907 14.98332232 30402,6950.186,96.107,574.012,570.09,0.0
55920.0,STARLINK-5862,PAYLOAD,2023-09-28 11:55:19,14.98321499,0.0002869,70.0021,16.7084,267.2248,92.8583,7.262e-05,7.73e-06,0.0,0 STARLINK-5862,1 55920U 23037G   23271.49675384  .00000773  00000-0  72620-4 0  9995,2 55920  70.0021  16.7084 0002869 267.2248  92.8583 14.98321499 30520,6950.219,96.108,574.078,570.09,0.0
55920.0,STARLINK-5862,PAYLOAD,2023-09-28 15:07:35,14.98322388,0.000291,70.0022,16.372,268.0659,92.0166,7.939e-05,8.54e-06,0.0,0 STARLINK-5862,1 55920U 23037G   23271.63027369  .00000854  00000-0  79390-4 0  9996,2 55920  70.0022  16.3720 0002910 268.0659  92.0166 14.98322388 30208,6950.216,96.107,574.104,570.059,0.0
55920.0,STARLINK-5862,PAYLOAD,2023-09-28 16:43:43,14.98324866,0.0002839,70.0022,16.2042,266.071,94.0124,8.5188e-05,9.23e-06,0.0,0 STARLINK-5862,1 55920U 23037G   23271.69703215  .00000923  00000-0  85188-4 0  9992,2 55920  70.0022  16.2042 0002839 266.0710  94.0124 14.98324866 30210,6950.209,96.107,574.047,570.101,0.0
55920.0,STARLINK-5862,PAYLOAD,2023-09-29 13:33:28,14.98327797,0.0002917,70.0023,14.0161,268.7713,91.3112,-4.4353e-06,-1.46e-06,0.0,0 STARLINK-5862,1 55920U 23037G   23272.56491362 -.00000146  00000-0 -44353-5 0  9995,2 55920  70.0023  14.0161 0002917 268.7713  91.3112 14.98327797 30345,6950.2,96.107,574.092,570.037,0.0
55920.0,STARLINK-5862,PAYLOAD,2023-09-29 16:45:44,14.98331366,0.0002907,70.0026,13.6799,268.3064,91.7762,4.6434e-05,4.61e-06,0.0,0 STARLINK-5862,1 55920U 23037G   23272.69842992  .00000461  00000-0  46434-4 0  9997,2 55920  70.0026  13.6799 0002907 268.3064  91.7762 14.98331366 30706,6950.189,96.107,574.074,570.033,0.0
55920.0,STARLINK-5862,PAYLOAD,2023-09-30 00:46:24,14.98334878,0.0002941,70.0026,12.8381,268.2968,91.7855,-3.6598e-05,-5.3e-06,0.0,0 STARLINK-5862,1 55920U 23037G   23273.03222899 -.00000530  00000-0 -36598-4 0  9993,2 55920  70.0026  12.8381 0002941 268.2968  91.7855 14.98334878 30416,6950.178,96.107,574.087,569.999,0.0
55920.0,STARLINK-5862,PAYLOAD,2023-09-30 16:47:44,14.9833636,0.0002929,70.0025,11.1551,269.551,90.5314,0.00019588,2.245e-05,0.0,0 STARLINK-5862,1 55920U 23037G   23273.69981976  .00002245  00000-0  19588-3 0  9995,2 55920  70.0025  11.1551 0002929 269.5510  90.5314 14.98336360 30852,6950.173,96.107,574.074,570.003,0.0
55920.0,STARLINK-5862,PAYLOAD,2023-10-01 10:25:13,14.98332696,0.0003038,70.0023,9.3036,273.3321,86.749,4.1034e-05,3.97e-06,0.0,0 STARLINK-5862,1 55920U 23037G   23274.43418288  .00000397  00000-0  41034-4 0  9997,2 55920  70.0023   9.3036 0003038 273.3321  86.7490 14.98332696 30964,6950.185,96.107,574.161,569.938,0.0
55920.0,STARLINK-5862,PAYLOAD,2023-10-01 13:37:29,14.98335924,0.0002993,70.0025,8.9682,270.5278,89.5538,5.106e-05,5.16e-06,0.0,0 STARLINK-5862,1 55920U 23037G   23274.56769962  .00000516  00000-0  51060-4 0  9992,2 55920  70.0025   8.9682 0002993 270.5278  89.5538 14.98335924 30643,6950.175,96.107,574.12,569.959,0.0
55920.0,STARLINK-5862,PAYLOAD,2023-10-01 16:49:45,14.98336646,0.0002892,70.003,8.6313,268.5583,91.5245,7.6791e-05,8.24e-06,0.0,0 STARLINK-5862,1 55920U 23037G   23274.70121811  .00000824  00000-0  76791-4 0  9993,2 55920  70.0030   8.6313 0002892 268.5583  91.5245 14.98336646 30663,6950.172,96.107,574.047,570.027,0.0
55920.0,STARLINK-5862,PAYLOAD,2023-10-02 12:03:23,14.98326533,0.0002733,70.0026,6.6118,271.5093,88.5753,-0.00017222,-2.147e-05,0.0,0 STARLINK-5862,1 55920U 23037G   23275.50235110 -.00002147  00000-0 -17222-3 0  9995,2 55920  70.0026   6.6118 0002733 271.5093  88.5753 14.98326533 31129,6950.204,96.107,573.968,570.169,0.0
55920.0,STARLINK-5862,PAYLOAD,2023-10-02 15:15:39,14.98326126,0.0002861,70.0021,6.2753,269.5346,90.5485,-0.00017043,-2.126e-05,0.0,0 STARLINK-5862,1 55920U 23037G   23275.63587145 -.00002126  00000-0 -17043-3 0  9995,2 55920  70.0021   6.2753 0002861 269.5346  90.5485 14.98326126 30802,6950.205,96.107,574.058,570.081,0.0
55920.0,STARLINK-5862,PAYLOAD,2023-10-03 10:29:15,14.98328657,0.0003005,70.0021,4.2556,271.042,89.0395,-1.1995e-05,-2.36e-06,0.0,0 STARLINK-5862,1 55920U 23037G   23276.43698551 -.00000236  00000-0 -11995-4 0  9999,2 55920  70.0021   4.2556 0003005 271.0420  89.0395 14.98328657 31268,6950.197,96.107,574.151,569.974,0.0
55920.0,STARLINK-5862,PAYLOAD,2023-10-03 13:41:31,14.98330909,0.0003022,70.0018,3.9185,270.2156,89.8657,4.9946e-06,-3.3e-07,0.0,0 STARLINK-5862,1 55920U 23037G   23276.57050347 -.00000033  00000-0  49946-5 0  9991,2 55920  70.0018   3.9185 0003022 270.2156  89.8657 14.98330909 30940,6950.19,96.107,574.155,569.955,0.0
55920.0,STARLINK-5862,PAYLOAD,2023-10-03 15:17:39,14.98331988,0.0003001,70.0019,3.7502,270.0347,90.0468,1.9231e-05,1.37e-06,0.0,0 STARLINK-5862,1 55920U 23037G   23276.63726237  .00000137  00000-0  19231-4 0  9993,2 55920  70.0019   3.7502 0003001 270.0347  90.0468 14.98331988 30952,6950.187,96.107,574.137,569.966,0.0
55920.0,STARLINK-5862,PAYLOAD,2023-10-04 10:31:16,14.98325336,0.0002919,70.0018,1.7302,271.5959,88.4865,0.00012656,1.417e-05,0.0,0 STARLINK-5862,1 55920U 23037G   23277.43838427  .00001417  00000-0  12656-3 0  9992,2 55920  70.0018   1.7302 0002919 271.5959  88.4865 14.98325336 31413,6950.207,96.107,574.101,570.044,0.0
55920.0,STARLINK-5862,PAYLOAD,2023-10-04 13:43:32,14.98331278,0.0002852,70.0016,1.3923,267.6576,92.4256,0.00015509,1.758e-05,0.0,0 STARLINK-5862,1 55920U 23037G   23277.57189936  .00001758  00000-0  15509-3 0  9999,2 55920  70.0016   1.3923 0002852 267.6576  92.4256 14.98331278 31098,6950.189,96.107,574.036,570.072,0.0
55920.0,STARLINK-5862,PAYLOAD,2023-10-04 15:19:40,14.98333199,0.0002846,70.0017,1.2241,267.7323,92.3511,0.00017302,1.972e-05,0.0,0 STARLINK-5862,1 55920U 23037G   23277.63865754  .00001972  00000-0  17302-3 0  9996,2 55920  70.0017   1.2241 0002846 267.7323  92.3511 14.98333199 31441,6950.183,96.107,574.026,570.07,0.0
55920.0,STARLINK-5862,PAYLOAD,2023-10-05 08:57:09,14.98330355,0.0002596,70.0024,359.3754,255.0758,105.0113,-6.3007e-06,-1.68e-06,0.0,0 STARLINK-5862,1 55920U 23037G   23278.37302280 -.00000168  00000-0 -63007-5 0  9991,2 55920  70.0024 359.3754 0002596 255.0758 105.0113 14.98330355 31552,6950.192,96.107,573.861,570.253,0.0
55920.0,STARLINK-5862,PAYLOAD,2023-10-05 13:45:33,14.98333188,0.0002907,70.0016,358.8691,268.1891,91.8935,1.4433e-05,7.9e-07,0.0,0 STARLINK-5862,1 55920U 23037G   23278.57330058  .00000079  00000-0  14433-4 0  9994,2 55920  70.0016 358.8691 0002907 268.1891  91.8935 14.98333188 31243,6950.183,96.107,574.068,570.028,0.0
55920.0,STARLINK-5862,PAYLOAD,2023-10-05 15:21:41,14.98334935,0.0002954,70.0015,358.7011,269.1028,90.9793,2.1188e-05,1.6e-06,0.0,0 STARLINK-5862,1 55920U 23037G   23278.64005913  .00000160  00000-0  21188-4 0  9997,2 55920  70.0015 358.7011 0002954 269.1028  90.9793 14.98334935 31256,6950.178,96.107,574.096,569.99,0.0
55920.0,STARLINK-5862,PAYLOAD,2023-10-06 10:35:18,14.98326538,0.0002809,70.0021,356.6816,263.4529,96.631,-0.00011524,-1.468e-05,0.0,0 STARLINK-5862,1 55920U 23037G   23279.44118884 -.00001468  00000-0 -11524-3 0  9994,2 55920  70.0021 356.6816 0002809 263.4529  96.6310 14.98326538 31714,6950.204,96.107,574.021,570.116,0.0
55920.0,STARLINK-5862,PAYLOAD,2023-10-06 13:47:34,14.9832823,0.000268,70.0022,356.3452,261.0953,98.9903,-8.9981e-05,-1.166e-05,0.0,0 STARLINK-5862,1 55920U 23037G   23279.57470722 -.00001166  00000-0 -89981-4 0  9998,2 55920  70.0022 356.3452 0002680 261.0953  98.9903 14.98328230 31398,6950.198,96.107,573.926,570.201,0.0
